ONEWEB-0034             
1 45454U 20020AG  25326.36124697 -.00000188  00000+0 -56559-3 0  9993
2 45454  87.8871  62.2401 0001695 104.1639 255.9677 13.11415646275482
ONEWEB-0060             
1 45455U 20020AH  25326.33243378  .00000520  00000+0  14310-2 0  9995
2 45455  87.8858  62.2651 0002698 119.6446 240.4951 13.11419929275433
ONEWEB-0086             
1 45456U 20020AJ  25326.31123745 -.00000311  00000+0 -91300-3 0  9994
2 45456  87.8871  62.2470 0002460 101.5983 258.5421 13.11418086275492
ONEWEB-0088             
1 45457U 20020AK  25326.36548288 -.00000295  00000+0 -86849-3 0  9996
2 45457  87.8886  62.1896 0001613 107.6497 252.4807 13.11414685275432
ONEWEB-0102             
1 47258U 20100A   25326.22712169 -.00000203  00000+0 -59936-3 0  9998
2 47258  87.8957  31.8018 0001806  94.9521 265.1814 13.12443317237589
ONEWEB-0109             
1 47259U 20100B   25326.23523119  .00000030  00000+0  47552-4 0  9993
2 47259  87.8961  31.7674 0001846  97.9813 262.1525 13.12443994237412
ONEWEB-0110             
1 47260U 20100C   25326.26118183  .00000384  00000+0  10314-2 0  9995
2 47260  87.8964  31.7464 0002094 102.1455 257.9908 13.12441485237589
ONEWEB-0111             
1 47261U 20100D   25326.21576126 -.00000343  00000+0 -98754-3 0  9998
2 47261  87.8962  31.7727 0001817 100.0393 260.0941 13.12442331237415
ONEWEB-0114             
1 47262U 20100E   25326.24658374  .00000402  00000+0  10811-2 0  9999
2 47262  87.8962  31.7614 0001665  90.3592 269.7727 13.12443515237372
ONEWEB-0117             
1 47263U 20100F   25326.23847830  .00000196  00000+0  51009-3 0  9991
2 47263  87.8962  31.7609 0001870 101.3905 258.7434 13.12444542237381
ONEWEB-0118             
1 47264U 20100G   25326.19467953  .00000135  00000+0  33869-3 0  9998
2 47264  87.8966  31.7688 0001449  97.7992 262.3301 13.12441358237576
ONEWEB-0119             
1 47265U 20100H   25326.22224892 -.00000343  00000+0 -98882-3 0  9995
2 47265  87.8958  31.7995 0001859  99.2074 260.9265 13.12443331237556
ONEWEB-0120             
1 47266U 20100J   25326.24510705  .00000886  00000+0  24271-2 0  9999
2 47266  87.8946  31.7955 0001855  95.2737 264.8603 13.12440297237588
ONEWEB-0121             
1 47267U 20100K   25326.23361022  .00000003  00000+0 -25674-4 0  9997
2 47267  87.8964  31.7654 0001964 102.5271 257.6078 13.12444109237493
ONEWEB-0122             
1 47268U 20100L   25326.22860580 -.00000144  00000+0 -43470-3 0  9990
2 47268  87.8964  31.7694 0001936  97.4598 262.6750 13.12443500237409
ONEWEB-0123             
1 47269U 20100M   25326.22387221 -.00000217  00000+0 -63989-3 0  9995
2 47269  87.8961  31.7976 0001723 102.1505 257.9817 13.12442810237545
ONEWEB-0124             
1 47270U 20100N   25326.21251573 -.00000374  00000+0 -10749-2 0  9995
2 47270  87.8961  31.8042 0001864 105.7580 254.3754 13.12442615237421
