[{"OBJECT_NAME":"ONEWEB-0034","OBJECT_ID":"2020-020AG","EPOCH":"2025-11-22T08:40:11.738208","MEAN_MOTION":13.11415646,"ECCENTRICITY":0.0001695,"INCLINATION":87.8871,"RA_OF_ASC_NODE":62.2401,"ARG_OF_PERICENTER":104.1639,"MEAN_ANOMALY":255.9677,"EPHEMERIS_TYPE":0,"CLASSIFICATION_TYPE":"U","NORAD_CAT_ID":45454,"ELEMENT_SET_NO":999,"REV_AT_EPOCH":27548,"BSTAR":-0.00056559,"MEAN_MOTION_DOT":-1.88e-6,"MEAN_MOTION_DDOT":0},{"OBJECT_NAME":"ONEWEB-0060","OBJECT_ID":"2020-020AH","EPOCH":"2025-11-22T07:58:42.278592","MEAN_MOTION":13.11419929,"ECCENTRICITY":0.0002698,"INCLINATION":87.8858,"RA_OF_ASC_NODE":62.2651,"ARG_OF_PERICENTER":119.6446,"MEAN_ANOMALY":240.4951,"EPHEMERIS_TYPE":0,"CLASSIFICATION_TYPE":"U","NORAD_CAT_ID":45455,"ELEMENT_SET_NO":999,"REV_AT_EPOCH":27543,"BSTAR":0.001431,"MEAN_MOTION_DOT":5.2e-6,"MEAN_MOTION_DDOT":0},{"OBJECT_NAME":"ONEWEB-0086","OBJECT_ID":"2020-020AJ","EPOCH":"2025-11-22T07:28:10.915680","MEAN_MOTION":13.11418086,"ECCENTRICITY":0.000246,"INCLINATION":87.8871,"RA_OF_ASC_NODE":62.247,"ARG_OF_PERICENTER":101.5983,"MEAN_ANOMALY":258.5421,"EPHEMERIS_TYPE":0,"CLASSIFICATION_TYPE":"U","NORAD_CAT_ID":45456,"ELEMENT_SET_NO":999,"REV_AT_EPOCH":27549,"BSTAR":-0.000913,"MEAN_MOTION_DOT":-3.11e-6,"MEAN_MOTION_DDOT":0},{"OBJECT_NAME":"ONEWEB-0088","OBJECT_ID":"2020-020AK","EPOCH":"2025-11-22T08:46:17.720832","MEAN_MOTION":13.11414685,"ECCENTRICITY":0.0001613,"INCLINATION":87.8886,"RA_OF_ASC_NODE":62.1896,"ARG_OF_PERICENTER":107.6497,"MEAN_ANOMALY":252.4807,"EPHEMERIS_TYPE":0,"CLASSIFICATION_TYPE":"U","NORAD_CAT_ID":45457,"ELEMENT_SET_NO":999,"REV_AT_EPOCH":27543,"BSTAR":-0.00086849,"MEAN_MOTION_DOT":-2.95e-6,"MEAN_MOTION_DDOT":0},{"OBJECT_NAME":"ONEWEB-0102","OBJECT_ID":"2020-100A","EPOCH":"2025-11-22T05:27:03.314016","MEAN_MOTION":13.12443317,"ECCENTRICITY":0.0001806,"INCLINATION":87.8957,"RA_OF_ASC_NODE":31.8018,"ARG_OF_PERICENTER":94.9521,"MEAN_ANOMALY":265.1814,"EPHEMERIS_TYPE":0,"CLASSIFICATION_TYPE":"U","NORAD_CAT_ID":47258,"ELEMENT_SET_NO":999,"REV_AT_EPOCH":23758,"BSTAR":-0.00059936,"MEAN_MOTION_DOT":-2.03e-6,"MEAN_MOTION_DDOT":0},{"OBJECT_NAME":"ONEWEB-0109","OBJECT_ID":"2020-100B","EPOCH":"2025-11-22T05:38:43.974816","MEAN_MOTION":13.12443994,"ECCENTRICITY":0.0001846,"INCLINATION":87.8961,"RA_OF_ASC_NODE":31.7674,"ARG_OF_PERICENTER":97.9813,"MEAN_ANOMALY":262.1525,"EPHEMERIS_TYPE":0,"CLASSIFICATION_TYPE":"U","NORAD_CAT_ID":47259,"ELEMENT_SET_NO":999,"REV_AT_EPOCH":23741,"BSTAR":4.7552e-5,"MEAN_MOTION_DOT":3.0e-7,"MEAN_MOTION_DDOT":0},{"OBJECT_NAME":"ONEWEB-0110","OBJECT_ID":"2020-100C","EPOCH":"2025-11-22T06:16:06.110112","MEAN_MOTION":13.12441485,"ECCENTRICITY":0.0002094,"INCLINATION":87.8964,"RA_OF_ASC_NODE":31.7464,"ARG_OF_PERICENTER":102.1455,"MEAN_ANOMALY":257.9908,"EPHEMERIS_TYPE":0,"CLASSIFICATION_TYPE":"U","NORAD_CAT_ID":47260,"ELEMENT_SET_NO":999,"REV_AT_EPOCH":23758,"BSTAR":0.0010314,"MEAN_MOTION_DOT":3.84e-6,"MEAN_MOTION_DDOT":0},{"OBJECT_NAME":"ONEWEB-0111","OBJECT_ID":"2020-100D","EPOCH":"2025-11-22T05:10:41.772864","MEAN_MOTION":13.12442331,"ECCENTRICITY":0.0001817,"INCLINATION":87.8962,"RA_OF_ASC_NODE":31.7727,"ARG_OF_PERICENTER":100.0393,"MEAN_ANOMALY":260.0941,"EPHEMERIS_TYPE":0,"CLASSIFICATION_TYPE":"U","NORAD_CAT_ID":47261,"ELEMENT_SET_NO":999,"REV_AT_EPOCH":23741,"BSTAR":-0.00098754,"MEAN_MOTION_DOT":-3.43e-6,"MEAN_MOTION_DDOT":0},{"OBJECT_NAME":"ONEWEB-0114","OBJECT_ID":"2020-100E","EPOCH":"2025-11-22T05:55:04.835136","MEAN_MOTION":13.12443515,"ECCENTRICITY":0.0001665,"INCLINATION":87.8962,"RA_OF_ASC_NODE":31.7614,"ARG_OF_PERICENTER":90.3592,"MEAN_ANOMALY":269.7727,"EPHEMERIS_TYPE":0,"CLASSIFICATION_TYPE":"U","NORAD_CAT_ID":47262,"ELEMENT_SET_NO":999,"REV_AT_EPOCH":23737,"BSTAR":0.0010811,"MEAN_MOTION_DOT":4.02e-6,"MEAN_MOTION_DDOT":0},{"OBJECT_NAME":"ONEWEB-0117","OBJECT_ID":"2020-100F","EPOCH":"2025-11-22T05:43:24.525120","MEAN_MOTION":13.12444542,"ECCENTRICITY":0.000187,"INCLINATION":87.8962,"RA_OF_ASC_NODE":31.7609,"ARG_OF_PERICENTER":101.3905,"MEAN_ANOMALY":258.7434,"EPHEMERIS_TYPE":0,"CLASSIFICATION_TYPE":"U","NORAD_CAT_ID":47263,"ELEMENT_SET_NO":999,"REV_AT_EPOCH":23738,"BSTAR":0.00051009,"MEAN_MOTION_DOT":1.96e-6,"MEAN_MOTION_DDOT":0},{"OBJECT_NAME":"ONEWEB-0118","OBJECT_ID":"2020-100G","EPOCH":"2025-11-22T04:40:20.311392","MEAN_MOTION":13.12441358,"ECCENTRICITY":0.0001449,"INCLINATION":87.8966,"RA_OF_ASC_NODE":31.7688,"ARG_OF_PERICENTER":97.7992,"MEAN_ANOMALY":262.3301,"EPHEMERIS_TYPE":0,"CLASSIFICATION_TYPE":"U","NORAD_CAT_ID":47264,"ELEMENT_SET_NO":999,"REV_AT_EPOCH":23757,"BSTAR":0.00033869,"MEAN_MOTION_DOT":1.35e-6,"MEAN_MOTION_DDOT":0},{"OBJECT_NAME":"ONEWEB-0119","OBJECT_ID":"2020-100H","EPOCH":"2025-11-22T05:20:02.306688","MEAN_MOTION":13.12443331,"ECCENTRICITY":0.0001859,"INCLINATION":87.8958,"RA_OF_ASC_NODE":31.7995,"ARG_OF_PERICENTER":99.2074,"MEAN_ANOMALY":260.9265,"EPHEMERIS_TYPE":0,"CLASSIFICATION_TYPE":"U","NORAD_CAT_ID":47265,"ELEMENT_SET_NO":999,"REV_AT_EPOCH":23755,"BSTAR":-0.00098882,"MEAN_MOTION_DOT":-3.43e-6,"MEAN_MOTION_DDOT":0},{"OBJECT_NAME":"ONEWEB-0120","OBJECT_ID":"2020-100J","EPOCH":"2025-11-22T05:52:57.249120","MEAN_MOTION":13.12440297,"ECCENTRICITY":0.0001855,"INCLINATION":87.8946,"RA_OF_ASC_NODE":31.7955,"ARG_OF_PERICENTER":95.2737,"MEAN_ANOMALY":264.8603,"EPHEMERIS_TYPE":0,"CLASSIFICATION_TYPE":"U","NORAD_CAT_ID":47266,"ELEMENT_SET_NO":999,"REV_AT_EPOCH":23758,"BSTAR":0.0024271,"MEAN_MOTION_DOT":8.86e-6,"MEAN_MOTION_DDOT":0},{"OBJECT_NAME":"ONEWEB-0121","OBJECT_ID":"2020-100K","EPOCH":"2025-11-22T05:36:23.923008","MEAN_MOTION":13.12444109,"ECCENTRICITY":0.0001964,"INCLINATION":87.8964,"RA_OF_ASC_NODE":31.7654,"ARG_OF_PERICENTER":102.5271,"MEAN_ANOMALY":257.6078,"EPHEMERIS_TYPE":0,"CLASSIFICATION_TYPE":"U","NORAD_CAT_ID":47267,"ELEMENT_SET_NO":999,"REV_AT_EPOCH":23749,"BSTAR":-2.5674e-5,"MEAN_MOTION_DOT":3.0e-8,"MEAN_MOTION_DDOT":0},{"OBJECT_NAME":"ONEWEB-0122","OBJECT_ID":"2020-100L","EPOCH":"2025-11-22T05:29:11.541120","MEAN_MOTION":13.124435,"ECCENTRICITY":0.0001936,"INCLINATION":87.8964,"RA_OF_ASC_NODE":31.7694,"ARG_OF_PERICENTER":97.4598,"MEAN_ANOMALY":262.675,"EPHEMERIS_TYPE":0,"CLASSIFICATION_TYPE":"U","NORAD_CAT_ID":47268,"ELEMENT_SET_NO":999,"REV_AT_EPOCH":23740,"BSTAR":-0.0004347,"MEAN_MOTION_DOT":-1.44e-6,"MEAN_MOTION_DDOT":0},{"OBJECT_NAME":"ONEWEB-0123","OBJECT_ID":"2020-100M","EPOCH":"2025-11-22T05:22:22.558944","MEAN_MOTION":13.1244281,"ECCENTRICITY":0.0001723,"INCLINATION":87.8961,"RA_OF_ASC_NODE":31.7976,"ARG_OF_PERICENTER":102.1505,"MEAN_ANOMALY":257.9817,"EPHEMERIS_TYPE":0,"CLASSIFICATION_TYPE":"U","NORAD_CAT_ID":47269,"ELEMENT_SET_NO":999,"REV_AT_EPOCH":23754,"BSTAR":-0.00063989,"MEAN_MOTION_DOT":-2.17e-6,"MEAN_MOTION_DDOT":0},{"OBJECT_NAME":"ONEWEB-0124","OBJECT_ID":"2020-100N","EPOCH":"2025-11-22T05:06:01.359072","MEAN_MOTION":13.12442615,"ECCENTRICITY":0.0001864,"INCLINATION":87.8961,"RA_OF_ASC_NODE":31.8042,"ARG_OF_PERICENTER":105.758,"MEAN_ANOMALY":254.3754,"EPHEMERIS_TYPE":0,"CLASSIFICATION_TYPE":"U","NORAD_CAT_ID":47270,"ELEMENT_SET_NO":999,"REV_AT_EPOCH":23742,"BSTAR":-0.0010749,"MEAN_MOTION_DOT":-3.74e-6,"MEAN_MOTION_DDOT":0}]
